[{"OBJECT_NAME":"STARLINK-5233","OBJECT_ID":"2022-141D","EPOCH":"2026-03-09T22:04:34.635648","MEAN_MOTION":15.08835916,"ECCENTRICITY":0.00013705,"INCLINATION":53.2188,"RA_OF_ASC_NODE":328.0572,"ARG_OF_PERICENTER":84.0744,"MEAN_ANOMALY":276.0404,"EPHEMERIS_TYPE":0,"CLASSIFICATION_TYPE":"U","NORAD_CAT_ID":54160,"ELEMENT_SET_NO":999,"REV_AT_EPOCH":18638,"BSTAR":2.1866643e-5,"MEAN_MOTION_DOT":6.0e-7,"MEAN_MOTION_DDOT":0},{"OBJECT_NAME":"ICEYE-X37","OBJECT_ID":"2024-043E","EPOCH":"2026-03-09T21:28:27.980256","MEAN_MOTION":15.05207146,"ECCENTRICITY":0.00148076,"INCLINATION":97.8149,"RA_OF_ASC_NODE":204.4924,"ARG_OF_PERICENTER":351.2295,"MEAN_ANOMALY":8.867,"EPHEMERIS_TYPE":0,"CLASSIFICATION_TYPE":"U","NORAD_CAT_ID":59102,"ELEMENT_SET_NO":999,"REV_AT_EPOCH":11014,"BSTAR":0.00044484532,"MEAN_MOTION_DOT":6.299e-5,"MEAN_MOTION_DDOT":0}]
